[{"OBJECT_NAME":"STARLINK-30763","OBJECT_ID":"2023-166P","EPOCH":"2026-03-09T15:41:28.640544","MEAN_MOTION":15.30186508,"ECCENTRICITY":0.00012852,"INCLINATION":53.1606,"RA_OF_ASC_NODE":207.2059,"ARG_OF_PERICENTER":82.005,"MEAN_ANOMALY":278.1096,"EPHEMERIS_TYPE":0,"CLASSIFICATION_TYPE":"U","NORAD_CAT_ID":58163,"ELEMENT_SET_NO":999,"REV_AT_EPOCH":13334,"BSTAR":4.3178314e-5,"MEAN_MOTION_DOT":9.19e-6,"MEAN_MOTION_DDOT":0},{"OBJECT_NAME":"FENGYUN 1C DEB","OBJECT_ID":"1999-025BCE","EPOCH":"2026-03-09T20:27:54.391104","MEAN_MOTION":15.38307136,"ECCENTRICITY":0.00917966,"INCLINATION":98.5506,"RA_OF_ASC_NODE":34.4945,"ARG_OF_PERICENTER":39.9911,"MEAN_ANOMALY":320.8043,"EPHEMERIS_TYPE":0,"CLASSIFICATION_TYPE":"U","NORAD_CAT_ID":30988,"ELEMENT_SET_NO":999,"REV_AT_EPOCH":875,"BSTAR":0.0023570074,"MEAN_MOTION_DOT":0.00103953,"MEAN_MOTION_DDOT":0}]
